[{"OBJECT_NAME":"STARLINK-36917","OBJECT_ID":"2026-041V","EPOCH":"2026-03-09T18:00:01.999296","MEAN_MOTION":15.94060118,"ECCENTRICITY":7.01e-5,"INCLINATION":53.1592,"RA_OF_ASC_NODE":61.8714,"ARG_OF_PERICENTER":85.6035,"MEAN_ANOMALY":44.5345,"EPHEMERIS_TYPE":0,"CLASSIFICATION_TYPE":"U","NORAD_CAT_ID":68059,"ELEMENT_SET_NO":999,"REV_AT_EPOCH":238,"BSTAR":-0.0043702,"MEAN_MOTION_DOT":-0.01646472,"MEAN_MOTION_DDOT":0.00077474},{"OBJECT_NAME":"STARLINK-36959","OBJECT_ID":"2026-041W","EPOCH":"2026-03-09T18:00:01.999296","MEAN_MOTION":15.94184694,"ECCENTRICITY":5.84e-5,"INCLINATION":53.1593,"RA_OF_ASC_NODE":61.8661,"ARG_OF_PERICENTER":84.8226,"MEAN_ANOMALY":47.5149,"EPHEMERIS_TYPE":0,"CLASSIFICATION_TYPE":"U","NORAD_CAT_ID":68060,"ELEMENT_SET_NO":999,"REV_AT_EPOCH":238,"BSTAR":-0.004307,"MEAN_MOTION_DOT":-0.01633639,"MEAN_MOTION_DDOT":0.00076463},{"OBJECT_NAME":"STARLINK-36915","OBJECT_ID":"2026-041X","EPOCH":"2026-03-09T18:00:01.999296","MEAN_MOTION":15.94310737,"ECCENTRICITY":5.89e-5,"INCLINATION":53.1593,"RA_OF_ASC_NODE":61.8612,"ARG_OF_PERICENTER":91.5564,"MEAN_ANOMALY":43.2138,"EPHEMERIS_TYPE":0,"CLASSIFICATION_TYPE":"U","NORAD_CAT_ID":68061,"ELEMENT_SET_NO":999,"REV_AT_EPOCH":238,"BSTAR":-0.0042761,"MEAN_MOTION_DOT":-0.01632839,"MEAN_MOTION_DDOT":0.00076491},{"OBJECT_NAME":"STARLINK-36952","OBJECT_ID":"2026-041Y","EPOCH":"2026-03-09T18:00:01.999296","MEAN_MOTION":15.94440295,"ECCENTRICITY":6.52e-5,"INCLINATION":53.1594,"RA_OF_ASC_NODE":61.8563,"ARG_OF_PERICENTER":94.7345,"MEAN_ANOMALY":42.621,"EPHEMERIS_TYPE":0,"CLASSIFICATION_TYPE":"U","NORAD_CAT_ID":68062,"ELEMENT_SET_NO":999,"REV_AT_EPOCH":238,"BSTAR":-0.0042568,"MEAN_MOTION_DOT":-0.01636672,"MEAN_MOTION_DDOT":0.00076922},{"OBJECT_NAME":"STARLINK-37000","OBJECT_ID":"2026-041Z","EPOCH":"2026-03-09T18:00:01.999296","MEAN_MOTION":15.94566875,"ECCENTRICITY":7.44e-5,"INCLINATION":53.1594,"RA_OF_ASC_NODE":61.8503,"ARG_OF_PERICENTER":85.9043,"MEAN_ANOMALY":54.0754,"EPHEMERIS_TYPE":0,"CLASSIFICATION_TYPE":"U","NORAD_CAT_ID":68063,"ELEMENT_SET_NO":999,"REV_AT_EPOCH":238,"BSTAR":-0.0042385,"MEAN_MOTION_DOT":-0.01640683,"MEAN_MOTION_DDOT":0.00077368},{"OBJECT_NAME":"STARLINK-36996","OBJECT_ID":"2026-041AA","EPOCH":"2026-03-09T18:00:01.999296","MEAN_MOTION":15.94686606,"ECCENTRICITY":6.41e-5,"INCLINATION":53.1594,"RA_OF_ASC_NODE":61.8451,"ARG_OF_PERICENTER":83.7831,"MEAN_ANOMALY":58.8582,"EPHEMERIS_TYPE":0,"CLASSIFICATION_TYPE":"U","NORAD_CAT_ID":68064,"ELEMENT_SET_NO":999,"REV_AT_EPOCH":238,"BSTAR":-0.0041894,"MEAN_MOTION_DOT":-0.01632175,"MEAN_MOTION_DDOT":0.00076725},{"OBJECT_NAME":"STARLINK-36836","OBJECT_ID":"2026-041AB","EPOCH":"2026-03-09T18:00:01.999296","MEAN_MOTION":15.94940813,"ECCENTRICITY":6.34e-5,"INCLINATION":53.1593,"RA_OF_ASC_NODE":61.8347,"ARG_OF_PERICENTER":84.7438,"MEAN_ANOMALY":62.7522,"EPHEMERIS_TYPE":0,"CLASSIFICATION_TYPE":"U","NORAD_CAT_ID":68065,"ELEMENT_SET_NO":999,"REV_AT_EPOCH":238,"BSTAR":-0.0041338,"MEAN_MOTION_DOT":-0.01632614,"MEAN_MOTION_DDOT":0.00076962},{"OBJECT_NAME":"STARLINK-36976","OBJECT_ID":"2026-041AC","EPOCH":"2026-03-09T18:00:01.999296","MEAN_MOTION":15.95065964,"ECCENTRICITY":6.36e-5,"INCLINATION":53.1592,"RA_OF_ASC_NODE":61.8293,"ARG_OF_PERICENTER":86.5257,"MEAN_ANOMALY":63.5329,"EPHEMERIS_TYPE":0,"CLASSIFICATION_TYPE":"U","NORAD_CAT_ID":68066,"ELEMENT_SET_NO":999,"REV_AT_EPOCH":238,"BSTAR":-0.0041014,"MEAN_MOTION_DOT":-0.01630753,"MEAN_MOTION_DDOT":0.00076898},{"OBJECT_NAME":"STARLINK-36929","OBJECT_ID":"2026-041AD","EPOCH":"2026-03-09T18:00:01.999296","MEAN_MOTION":15.94815626,"ECCENTRICITY":5.9e-5,"INCLINATION":53.1591,"RA_OF_ASC_NODE":61.8393,"ARG_OF_PERICENTER":95.1098,"MEAN_ANOMALY":50.1357,"EPHEMERIS_TYPE":0,"CLASSIFICATION_TYPE":"U","NORAD_CAT_ID":68067,"ELEMENT_SET_NO":999,"REV_AT_EPOCH":238,"BSTAR":-0.0041685,"MEAN_MOTION_DOT":-0.01635243,"MEAN_MOTION_DDOT":0.00077091},{"OBJECT_NAME":"STARLINK-36990","OBJECT_ID":"2026-041AE","EPOCH":"2026-03-09T18:00:01.999296","MEAN_MOTION":15.95196447,"ECCENTRICITY":6.6e-5,"INCLINATION":53.1591,"RA_OF_ASC_NODE":61.8235,"ARG_OF_PERICENTER":91.3554,"MEAN_ANOMALY":61.4974,"EPHEMERIS_TYPE":0,"CLASSIFICATION_TYPE":"U","NORAD_CAT_ID":68068,"ELEMENT_SET_NO":999,"REV_AT_EPOCH":238,"BSTAR":-0.0041012,"MEAN_MOTION_DOT":-0.01642049,"MEAN_MOTION_DDOT":0.00077985},{"OBJECT_NAME":"GLOBAL-34","OBJECT_ID":"2026-043A","EPOCH":"2026-03-09T11:23:30.999840","MEAN_MOTION":15.31488019,"ECCENTRICITY":0.00068849,"INCLINATION":42.0215,"RA_OF_ASC_NODE":76.7399,"ARG_OF_PERICENTER":289.2632,"MEAN_ANOMALY":70.746,"EPHEMERIS_TYPE":0,"CLASSIFICATION_TYPE":"U","NORAD_CAT_ID":68098,"ELEMENT_SET_NO":999,"REV_AT_EPOCH":53,"BSTAR":0.00045822046,"MEAN_MOTION_DOT":0.00014018,"MEAN_MOTION_DDOT":0},{"OBJECT_NAME":"ELECTRON R/B","OBJECT_ID":"2026-043B","EPOCH":"2026-03-09T08:29:55.148928","MEAN_MOTION":15.95333192,"ECCENTRICITY":0.0170809,"INCLINATION":42.0141,"RA_OF_ASC_NODE":75.7245,"ARG_OF_PERICENTER":290.543,"MEAN_ANOMALY":67.7176,"EPHEMERIS_TYPE":0,"CLASSIFICATION_TYPE":"U","NORAD_CAT_ID":68099,"ELEMENT_SET_NO":999,"REV_AT_EPOCH":53,"BSTAR":0.0013683,"MEAN_MOTION_DOT":0.02880529,"MEAN_MOTION_DDOT":7.6312e-6},{"OBJECT_NAME":"ELECTRON KICK STAGE R/B","OBJECT_ID":"2026-043C","EPOCH":"2026-03-09T11:32:12.354720","MEAN_MOTION":15.96396295,"ECCENTRICITY":0.015067,"INCLINATION":42.1196,"RA_OF_ASC_NODE":75.0711,"ARG_OF_PERICENTER":47.4339,"MEAN_ANOMALY":313.9128,"EPHEMERIS_TYPE":0,"CLASSIFICATION_TYPE":"U","NORAD_CAT_ID":68100,"ELEMENT_SET_NO":999,"REV_AT_EPOCH":54,"BSTAR":0.0019440022,"MEAN_MOTION_DOT":0.03047399,"MEAN_MOTION_DDOT":8.134171e-6}]
